[{"OBJECT_NAME":"METEOSAT-12 (MTG-I1)","OBJECT_ID":"2022-170C","EPOCH":"2026-03-28T19:55:03.838656","MEAN_MOTION":1.00272753,"ECCENTRICITY":0.00018691,"INCLINATION":0.7315,"RA_OF_ASC_NODE":25.4287,"ARG_OF_PERICENTER":290.1317,"MEAN_ANOMALY":169.087,"EPHEMERIS_TYPE":0,"CLASSIFICATION_TYPE":"U","NORAD_CAT_ID":54743,"ELEMENT_SET_NO":999,"REV_AT_EPOCH":1217,"BSTAR":0,"MEAN_MOTION_DOT":-2.6e-7,"MEAN_MOTION_DDOT":0},{"OBJECT_NAME":"SHIJIAN-23 (SJ-23)","OBJECT_ID":"2023-002A","EPOCH":"2026-03-28T18:34:53.945472","MEAN_MOTION":1.00478693,"ECCENTRICITY":0.0005797,"INCLINATION":3.5116,"RA_OF_ASC_NODE":79.3148,"ARG_OF_PERICENTER":264.3979,"MEAN_ANOMALY":269.2247,"EPHEMERIS_TYPE":0,"CLASSIFICATION_TYPE":"U","NORAD_CAT_ID":55131,"ELEMENT_SET_NO":999,"REV_AT_EPOCH":1170,"BSTAR":0,"MEAN_MOTION_DOT":-1.93e-6,"MEAN_MOTION_DDOT":0},{"OBJECT_NAME":"APSTAR-6E","OBJECT_ID":"2023-005A","EPOCH":"2026-03-25T14:34:38.425152","MEAN_MOTION":1.00267101,"ECCENTRICITY":8.76e-5,"INCLINATION":0.0189,"RA_OF_ASC_NODE":217.0922,"ARG_OF_PERICENTER":107.3207,"MEAN_ANOMALY":211.2565,"EPHEMERIS_TYPE":0,"CLASSIFICATION_TYPE":"U","NORAD_CAT_ID":55239,"ELEMENT_SET_NO":999,"REV_AT_EPOCH":1785,"BSTAR":0,"MEAN_MOTION_DOT":-3.31e-6,"MEAN_MOTION_DDOT":0},{"OBJECT_NAME":"USA 342","OBJECT_ID":"2023-008A","EPOCH":"2026-03-27T06:24:38.600352","MEAN_MOTION":1.00269249,"ECCENTRICITY":1.14e-5,"INCLINATION":0.0167,"RA_OF_ASC_NODE":183.2424,"ARG_OF_PERICENTER":195.5065,"MEAN_ANOMALY":285.9229,"EPHEMERIS_TYPE":0,"CLASSIFICATION_TYPE":"U","NORAD_CAT_ID":55263,"ELEMENT_SET_NO":999,"REV_AT_EPOCH":1169,"BSTAR":0,"MEAN_MOTION_DOT":0,"MEAN_MOTION_DDOT":0},{"OBJECT_NAME":"LDPE-3A","OBJECT_ID":"2023-008B","EPOCH":"2026-03-28T18:56:03.934752","MEAN_MOTION":0.99992039,"ECCENTRICITY":2.093e-5,"INCLINATION":2.1395,"RA_OF_ASC_NODE":82.6581,"ARG_OF_PERICENTER":251.4169,"MEAN_ANOMALY":289.6644,"EPHEMERIS_TYPE":0,"CLASSIFICATION_TYPE":"U","NORAD_CAT_ID":55264,"ELEMENT_SET_NO":999,"REV_AT_EPOCH":1101,"BSTAR":0,"MEAN_MOTION_DOT":-2.41e-6,"MEAN_MOTION_DDOT":0},{"OBJECT_NAME":"ELEKTRO-L 4","OBJECT_ID":"2023-016A","EPOCH":"2026-03-28T00:34:47.138880","MEAN_MOTION":1.00273785,"ECCENTRICITY":0.00013159,"INCLINATION":0.0572,"RA_OF_ASC_NODE":328.3181,"ARG_OF_PERICENTER":328.9109,"MEAN_ANOMALY":62.7343,"EPHEMERIS_TYPE":0,"CLASSIFICATION_TYPE":"U","NORAD_CAT_ID":55506,"ELEMENT_SET_NO":999,"REV_AT_EPOCH":1152,"BSTAR":0,"MEAN_MOTION_DOT":-7.7e-7,"MEAN_MOTION_DDOT":0},{"OBJECT_NAME":"AMAZONAS NEXUS","OBJECT_ID":"2023-017A","EPOCH":"2026-03-28T11:04:19.698240","MEAN_MOTION":1.00269376,"ECCENTRICITY":0.00048752,"INCLINATION":0.024,"RA_OF_ASC_NODE":83.6635,"ARG_OF_PERICENTER":299.2075,"MEAN_ANOMALY":268.1035,"EPHEMERIS_TYPE":0,"CLASSIFICATION_TYPE":"U","NORAD_CAT_ID":55508,"ELEMENT_SET_NO":999,"REV_AT_EPOCH":623,"BSTAR":0,"MEAN_MOTION_DOT":0,"MEAN_MOTION_DDOT":0},{"OBJECT_NAME":"ZHONGXING-26","OBJECT_ID":"2023-023A","EPOCH":"2026-03-27T10:17:16.720800","MEAN_MOTION":1.00269869,"ECCENTRICITY":0.0003902,"INCLINATION":0.0682,"RA_OF_ASC_NODE":65.8691,"ARG_OF_PERICENTER":338.9574,"MEAN_ANOMALY":59.4502,"EPHEMERIS_TYPE":0,"CLASSIFICATION_TYPE":"U","NORAD_CAT_ID":55686,"ELEMENT_SET_NO":999,"REV_AT_EPOCH":1141,"BSTAR":0,"MEAN_MOTION_DOT":-3.72e-6,"MEAN_MOTION_DDOT":0},{"OBJECT_NAME":"LUCH-5X (OLYMP-K 2)","OBJECT_ID":"2023-031A","EPOCH":"2026-03-28T15:22:20.128800","MEAN_MOTION":1.00270242,"ECCENTRICITY":0.000146,"INCLINATION":0.0319,"RA_OF_ASC_NODE":81.8631,"ARG_OF_PERICENTER":142.0985,"MEAN_ANOMALY":254.6522,"EPHEMERIS_TYPE":0,"CLASSIFICATION_TYPE":"U","NORAD_CAT_ID":55841,"ELEMENT_SET_NO":999,"REV_AT_EPOCH":1113,"BSTAR":0,"MEAN_MOTION_DOT":1.4e-7,"MEAN_MOTION_DDOT":0},{"OBJECT_NAME":"GAOFEN-13 02","OBJECT_ID":"2023-036A","EPOCH":"2026-03-27T15:31:48.575136","MEAN_MOTION":1.00269484,"ECCENTRICITY":0.00050493,"INCLINATION":1.0256,"RA_OF_ASC_NODE":350.7398,"ARG_OF_PERICENTER":335.1311,"MEAN_ANOMALY":240.3662,"EPHEMERIS_TYPE":0,"CLASSIFICATION_TYPE":"U","NORAD_CAT_ID":55912,"ELEMENT_SET_NO":999,"REV_AT_EPOCH":1127,"BSTAR":0,"MEAN_MOTION_DOT":-2.38e-6,"MEAN_MOTION_DDOT":0},{"OBJECT_NAME":"SES-18","OBJECT_ID":"2023-038A","EPOCH":"2026-03-28T21:08:29.027328","MEAN_MOTION":1.00270709,"ECCENTRICITY":0.0002031,"INCLINATION":0.0196,"RA_OF_ASC_NODE":253.0085,"ARG_OF_PERICENTER":67.5339,"MEAN_ANOMALY":79.754,"EPHEMERIS_TYPE":0,"CLASSIFICATION_TYPE":"U","NORAD_CAT_ID":55970,"ELEMENT_SET_NO":999,"REV_AT_EPOCH":1129,"BSTAR":0,"MEAN_MOTION_DOT":-1.2e-6,"MEAN_MOTION_DDOT":0},{"OBJECT_NAME":"SES-19","OBJECT_ID":"2023-038B","EPOCH":"2026-03-28T17:33:56.809728","MEAN_MOTION":1.00273149,"ECCENTRICITY":0.00018311,"INCLINATION":0.0418,"RA_OF_ASC_NODE":278.1831,"ARG_OF_PERICENTER":83.327,"MEAN_ANOMALY":313.2142,"EPHEMERIS_TYPE":0,"CLASSIFICATION_TYPE":"U","NORAD_CAT_ID":55971,"ELEMENT_SET_NO":999,"REV_AT_EPOCH":1127,"BSTAR":0,"MEAN_MOTION_DOT":6.8e-7,"MEAN_MOTION_DDOT":0},{"OBJECT_NAME":"INTELSAT 40E (IS-40E)","OBJECT_ID":"2023-052A","EPOCH":"2026-03-28T12:38:32.635104","MEAN_MOTION":1.002719,"ECCENTRICITY":7.69e-5,"INCLINATION":0.0125,"RA_OF_ASC_NODE":147.606,"ARG_OF_PERICENTER":252.8706,"MEAN_ANOMALY":244.0962,"EPHEMERIS_TYPE":0,"CLASSIFICATION_TYPE":"U","NORAD_CAT_ID":56174,"ELEMENT_SET_NO":999,"REV_AT_EPOCH":1101,"BSTAR":0,"MEAN_MOTION_DOT":-1.94e-6,"MEAN_MOTION_DDOT":0},{"OBJECT_NAME":"VIASAT-3 F1","OBJECT_ID":"2023-060A","EPOCH":"2026-03-28T14:21:45.237600","MEAN_MOTION":1.00270818,"ECCENTRICITY":0.0001057,"INCLINATION":0.0146,"RA_OF_ASC_NODE":218.3095,"ARG_OF_PERICENTER":236.3445,"MEAN_ANOMALY":217.8617,"EPHEMERIS_TYPE":0,"CLASSIFICATION_TYPE":"U","NORAD_CAT_ID":56370,"ELEMENT_SET_NO":999,"REV_AT_EPOCH":1062,"BSTAR":0,"MEAN_MOTION_DOT":-2.05e-6,"MEAN_MOTION_DDOT":0},{"OBJECT_NAME":"ARCTURUS","OBJECT_ID":"2023-060B","EPOCH":"2026-03-28T15:07:48.321696","MEAN_MOTION":1.00272256,"ECCENTRICITY":0.0001026,"INCLINATION":2.5677,"RA_OF_ASC_NODE":80.9515,"ARG_OF_PERICENTER":305.8506,"MEAN_ANOMALY":98.6611,"EPHEMERIS_TYPE":0,"CLASSIFICATION_TYPE":"U","NORAD_CAT_ID":56371,"ELEMENT_SET_NO":999,"REV_AT_EPOCH":1065,"BSTAR":0,"MEAN_MOTION_DOT":-8.0e-7,"MEAN_MOTION_DDOT":0},{"OBJECT_NAME":"GS-1","OBJECT_ID":"2023-060C","EPOCH":"2026-03-28T13:28:50.312352","MEAN_MOTION":1.00294982,"ECCENTRICITY":0.0004724,"INCLINATION":2.5179,"RA_OF_ASC_NODE":80.7635,"ARG_OF_PERICENTER":267.9888,"MEAN_ANOMALY":124.8921,"EPHEMERIS_TYPE":0,"CLASSIFICATION_TYPE":"U","NORAD_CAT_ID":56372,"ELEMENT_SET_NO":999,"REV_AT_EPOCH":673,"BSTAR":0,"MEAN_MOTION_DOT":-2.11e-6,"MEAN_MOTION_DDOT":0},{"OBJECT_NAME":"BEIDOU-3 G4","OBJECT_ID":"2023-066A","EPOCH":"2026-03-13T04:10:32.176992","MEAN_MOTION":1.00272296,"ECCENTRICITY":0.00026474,"INCLINATION":0.6336,"RA_OF_ASC_NODE":312.1088,"ARG_OF_PERICENTER":153.4351,"MEAN_ANOMALY":287.9442,"EPHEMERIS_TYPE":0,"CLASSIFICATION_TYPE":"U","NORAD_CAT_ID":56564,"ELEMENT_SET_NO":999,"REV_AT_EPOCH":1043,"BSTAR":0,"MEAN_MOTION_DOT":-1.11e-6,"MEAN_MOTION_DDOT":0}]
